[
    {
        "Altitude(m)": 605459.0422939366,
        "Argument of Periapsis(deg)": 0.0,
        "Eccentricity": 0.0,
        "Inclination(deg)": 60.0,
        "Latitude(deg)": 27.98825782231984,
        "Longitude(deg)": 172.7986365602219,
        "Mean Anomaly(deg)": 32.72730000000001,
        "RAAN(deg)": 255.0,
        "Satellite Name": "Test1 1124",
        "Satellite Number": 1124,
        "Semi-Major Axis(m)": 6980739.136638005,
        "Time(s)": 0
    },
    {
        "Altitude(m)": 605535.8332832056,
        "Argument of Periapsis(deg)": 0.00010418945913296404,
        "Eccentricity": 0.0,
        "Inclination(deg)": 60.0,
        "Latitude(deg)": 28.50138671368035,
        "Longitude(deg)": 173.15558290806587,
        "Mean Anomaly(deg)": 33.34740614546182,
        "RAAN(deg)": 254.99957995086027,
        "Satellite Name": "Test1 1124",
        "Satellite Number": 1124,
        "Semi-Major Axis(m)": 6980739.136638005,
        "Time(s)": 10
    }
]